ECHOSTAR 25             
1 68126U 26045A   26168.38891330  .00000000  00000+0  00000+0 0  9996
2 68126   0.0187  16.9910 0001780  70.8864 207.7878  1.00270022   997
